1 27386U 02009A   04232.17991974 -.00000333  00000-0 -10747-3 0  9998
2 27386 098.5454 297.9193 0001107 100.4860 259.6432 14.32249057129135
1 27386U 02009A   04232.31964060 -.00000368  00000-0 -12026-3 0  9990
2 27386 098.5453 298.0570 0001131 101.7598 258.3696 14.32248679129153
1 27386U 02009A   04232.80866395 -.00000518  00000-0 -17596-3 0  9990
2 27386 098.5451 298.5384 0001068 101.7550 258.3744 14.32247184129228
1 27386U 02009A   04232.80866395 -.00000518  00000-0 -17596-3 0  9990
2 27386 098.5451 298.5384 0001068 101.7550 258.3744 14.32247184129228
1 27386U 02009A   04232.94838487 -.00000549 +00000-0 -18759-3 0  9992
2 27386 098.5451 298.6761 0001059 102.7843 257.3450 14.32246814129248
1 27386U 02009A   04233.15796620 -.00000599  00000-0 -20595-3 0  9994
2 27386 098.5450 298.8828 0001069 104.3564 255.7734 14.32246309129271
1 27386U 02009A   04233.50726852 -.00000628  00000-0 -21670-3 0  9991
2 27386 098.5450 299.2271 0001065 102.0132 258.1173 14.32245730129327
1 27386U 02009A   04233.92643113 -.00000660 +00000-0 -22869-3 0  9992
2 27386 098.5450 299.6402 0001121 106.8670 253.2637 14.32245051129382
1 27386U 02009A   04234.13601249 -.00000640  00000-0 -22135-3 0  9994
2 27386 098.5450 299.8470 0001086 105.6887 254.4439 14.32245044129415
1 27386U 02009A   04234.55517502 -.00000634  00000-0 -21920-3 0  9992
2 27386 098.5447 300.2598 0001094 098.6528 261.4784 14.32244659129479
1 27386U 02009A   04234.83461636 -.00000613  00000-0 -21135-3 0  9994
2 27386 098.5443 300.5346 0001120 099.7079 260.4231 14.32244612129512
1 27386U 02009A   04235.18391844 -.00000529  00000-0 -18010-3 0  9990
2 27386 098.5440 300.8788 0001084 102.0180 258.1161 14.32244964129563
1 27386U 02009A   04235.46335954 -.00000522  00000-0 -17738-3 0  9990
2 27386 098.5440 301.1541 0001081 101.9311 258.1997 14.32244777129609
1 27386U 02009A   04235.81266135 -.00000444  00000-0 -14838-3 0  9994
2 27386 098.5440 301.4984 0001143 100.9428 259.1889 14.32245062129654
1 27386U 02009A   04235.95238220 -.00000444 +00000-0 -14838-3 0  9993
2 27386 098.5440 301.6361 0001143 100.5303 259.6009 14.32244950129679
1 27386U 02009A   04236.16196300 -.00000295  00000-0 -93248-4 0  9996
2 27386 098.5437 301.8424 0001072 102.5600 257.5764 14.32246072129706
1 27386U 02009A   04236.44140352 -.00000295  00000-0 -93248-4 0  9993
2 27386 098.5437 302.1176 0001072 101.7351 258.3953 14.32245932129745
1 27386U 02009A   04236.79070430 -.00000126  00000-0 -30551-4 0  9991
2 27386 098.5437 302.4620 0001156 102.6570 257.4743 14.32247059129792
1 27386U 02009A   04236.86056467 -.00000108 +00000-0 -23717-4 0  9999
2 27386 098.5438 302.5309 0001172 103.0197 257.1121 14.32247166129804
1 27386U 02009A   04237.07014559 -.00000093  00000-0 -18163-4 0  9991
2 27386 098.5438 302.7373 0001167 102.2953 257.8361 14.32247245129836
1 27386U 02009A   04237.34958641 -.00000012  00000-0  11662-4 0  9997
2 27386 098.5437 303.0126 0001144 103.5415 256.5897 14.32247792129878
1 27386U 02009A   04237.48930708 -.00000012  00000-0  11662-4 0  9996
2 27386 098.5437 303.1502 0001144 103.1291 257.0020 14.32247801129892
1 27386U 02009A   04237.76874802  .00000035  00000-0  29091-4 0  9998
2 27386 098.5438 303.4256 0001153 103.2407 256.8904 14.32248157129930
1 27386U 02009A   04237.90846867 +.00000031 +00000-0 +27731-4 0  9999
2 27386 098.5438 303.5631 0001194 104.2240 255.9071 14.32248130129957
1 27386U 02009A   04238.18790984  .00000056  00000-0  37073-4 0  9995
2 27386 098.5438 303.8385 0001173 102.1544 257.9776 14.32248405129990
1 27386U 02009A   04238.46735103  .00000054  00000-0  36227-4 0  9996
2 27386 098.5439 304.1136 0001155 102.2141 257.9173 14.32248404130030
1 27386U 02009A   04238.81665256  .00000032  00000-0  27920-4 0  9992
2 27386 098.5440 304.4579 0001153 102.0994 258.0311 14.32248276130086
1 27386U 02009A   04238.88651302 +.00000022 +00000-0 +24428-4 0  9995
2 27386 098.5440 304.5267 0001175 102.6895 257.4414 14.32248205130091
1 27386U 02009A   04239.16595426  .00000044  00000-0  32488-4 0  9990
2 27386 098.5437 304.8020 0001149 100.4883 259.6435 14.32248435130138
1 27386U 02009A   04239.37553506  .00000023  00000-0  24638-4 0  9991
2 27386 098.5436 305.0086 0001158 098.8587 261.2716 14.32248307130165
1 27386U 02009A   04239.79469683  .00000023  00000-0  24550-4 0  9992
2 27386 098.5437 305.4214 0001160 099.9508 260.1799 14.32248373130220
1 27386U 02009A   04239.86455729 +.00000023 +00000-0 +24550-4 0  9996
2 27386 098.5437 305.4902 0001160 099.7446 260.3868 14.32248383130234
1 27386U 02009A   04240.14399878  .00000028  00000-0  26376-4 0  9994
2 27386 098.5439 305.7657 0001155 101.0263 259.1071 14.32248452130277
1 27386U 02009A   04240.49329992  .00000024  00000-0  25214-4 0  9998
2 27386 098.5440 306.1099 0001154 100.0358 260.0960 14.32248485130327
1 27386U 02009A   04240.77274104  .00000010  00000-0  19908-4 0  9991
2 27386 098.5439 306.3850 0001137 100.4411 259.6896 14.32248401130361
1 27386U 02009A   04240.91246174 -.00000001 +00000-0 +15886-4 0  9995
2 27386 098.5440 306.5227 0001160 101.4107 258.7200 14.32248308130389
1 27386U 02009A   04241.19190312  .00000002  00000-0  16722-4 0  9998
2 27386 098.5441 306.7979 0001168 100.7856 259.3460 14.32248340130423
1 27386U 02009A   04241.47134424  .00000001  00000-0  16657-4 0  9997
2 27386 098.5439 307.0733 0001184 102.2990 257.8325 14.32248371130467
1 27386U 02009A   04241.82064554  .00000007  00000-0  18849-4 0  9993
2 27386 098.5438 307.4171 0001215 104.3869 255.7454 14.32248518130518
1 27386U 02009A   04242.10008683  .00000004  00000-0  17710-4 0  9999
2 27386 098.5438 307.6925 0001233 104.6520 255.4805 14.32248487130550
1 27386U 02009A   04242.44938837 -.00000007  00000-0  13500-4 0  9996
2 27386 098.5437 308.0367 0001233 102.3890 257.7432 14.32248440130605
1 27386U 02009A   04242.86855023 -.00000028  00000-0  58238-5 0  9998
2 27386 098.5437 308.4495 0001209 101.2192 258.9127 14.32248325130669
1 27386U 02009A   04242.93841054 -.00000031 +00000-0 +45835-5 0  9998
2 27386 098.5437 308.5185 0001228 101.9203 258.2115 14.32248285130673
1 27386U 02009A   04243.14799147 -.00000001  00000-0  15969-4 0  9998
2 27386 098.5437 308.7250 0001196 099.6606 260.4727 14.32248570130707
1 27386U 02009A   04243.49729278 -.00000010  00000-0  12427-4 0  9990
2 27386 098.5437 309.0691 0001207 098.3335 261.7987 14.32248526130756
1 27386U 02009A   04243.77673372  .00000010  00000-0  19841-4 0  9990
2 27386 098.5437 309.3444 0001189 096.2202 263.9117 14.32248710130792
1 27386U 02009A   04243.84659402 +.00000006 +00000-0 +18530-4 0  9995
2 27386 098.5438 309.4133 0001218 097.5972 262.5344 14.32248665130808
1 27386U 02009A   04244.12603535  .00000023  00000-0  24555-4 0  9996
2 27386 098.5439 309.6887 0001223 099.0424 261.0913 14.32248820130845
1 27386U 02009A   04244.54519686  .00000016  00000-0  22167-4 0  9994
2 27386 098.5439 310.1016 0001233 098.4240 261.7084 14.32248802130909
1 27386U 02009A   04244.89449827  .00000016  00000-0  22167-4 0  9991
2 27386 098.5439 310.4457 0001233 097.3931 262.7393 14.32248844130951
1 27386U 02009A   04245.10407911  .00000016  00000-0  22167-4 0  9994
2 27386 098.5439 310.6521 0001233 096.7746 263.3578 14.32248869130984
1 27386U 02009A   04245.52324077  .00000016  00000-0  22167-4 0  9991
2 27386 098.5439 311.0649 0001233 095.5376 264.5948 14.32248919131044
1 27386U 02009A   04245.73282160  .00000020  00000-0  23670-4 0  9995
2 27386 098.5440 311.2720 0001185 097.2644 262.8688 14.32248977131070
1 27386U 02009A   04245.87254189 +.00000020 +00000-0 +23670-4 0  9990
2 27386 098.5440 311.4096 0001185 096.8521 263.2798 14.32248995131096
1 27386U 02009A   04246.15198310  .00000022  00000-0  24287-4 0  9992
2 27386 098.5438 311.6848 0001195 097.2265 262.9065 14.32249070131134
1 27386U 02009A   04246.36156370 -.00000000  00000-0  16026-4 0  9994
2 27386 098.5438 311.8914 0001210 097.1993 262.9315 14.32248898131163
1 27386U 02009A   04246.64100621 -.00000096  00000-0 -19361-4 0  9994
2 27386 098.5435 312.1662 0001046 087.8652 272.2647 14.32248035131209
